     2.100          NAVIGATION                              RINEX VERSION / TYPE
fic2rin                                 05/29/2009 02:13:10 PGM / RUN BY / DATE
                                                            END OF HEADER
14 09  5 28  8  0  0.0 -.103717669845D-03  .591171556152D-11  .000000000000D+00
     .680000000000D+02  .113218750000D+03  .382908806832D-08 -.134958902970D+01
     .578351318836D-05  .444608239923D-02  .493042171001D-05  .515361004448D+04
     .374400000000D+06  .201165676117D-06  .173538299908D+01  .428408384323D-07
     .988165114781D+00  .301875000000D+03 -.215164663354D+01 -.798390399022D-08
     .108218793461D-09  .100000000000D+01  .153300000000D+04  .000000000000D+00
     .240000000000D+01  .000000000000D+00 -.931322574615D-08  .680000000000D+02
     .367206000000D+06  .400000000000D+01
15 09  5 28  8  0  0.0 -.295860692859D-03 -.352429196937D-11  .000000000000D+00
     .300000000000D+02  .104750000000D+03  .446197157331D-08 -.116671170186D+01
     .552460551262D-05  .143575936090D-02  .437162816525D-05  .515362020111D+04
     .374400000000D+06 -.128522515297D-06  .168285661531D+01  .484287738800D-07
     .956195197962D+00  .295843750000D+03 -.472803993338D+00 -.818534095231D-08
     .125362364703D-09  .100000000000D+01  .153300000000D+04  .000000000000D+00
     .240000000000D+01  .000000000000D+00 -.977888703346D-08  .300000000000D+02
     .367206000000D+06  .400000000000D+01
16 09  5 28  8  0  0.0  .471449457109D-04 -.341060513165D-11  .000000000000D+00
     .105000000000D+03 -.120187500000D+03  .411267130927D-08  .323009898087D+00
    -.609084963799D-05  .536505784839D-02  .986270606518D-05  .515355971527D+04
     .374400000000D+06  .763684511185D-07 -.246958613949D+01 -.596046447754D-07
     .968583630059D+00  .192000000000D+03 -.354410480836D+00 -.790782939284D-08
     .210723063176D-09  .100000000000D+01  .153300000000D+04  .000000000000D+00
     .240000000000D+01  .000000000000D+00 -.977888703346D-08  .105000000000D+03
     .367206000000D+06  .400000000000D+01
17 09  5 28  8  0  0.0  .612945295870D-04  .193267624127D-11  .000000000000D+00
     .150000000000D+02  .478125000000D+01  .485841665827D-08 -.789572895646D+00
     .363215804100D-06  .450494606048D-02  .846385955811D-05  .515368271446D+04
     .374400000000D+06  .279396772385D-07 -.142718041401D+01  .372529029846D-08
     .959289162907D+00  .215812500000D+03 -.264178073042D+01 -.804640659370D-08
     .533950812623D-09  .100000000000D+01  .153300000000D+04  .000000000000D+00
     .240000000000D+01  .000000000000D+00 -.102445483208D-07  .150000000000D+02
     .367206000000D+06  .400000000000D+01
18 09  5 28  8  0  0.0 -.531193800271D-04  .329691829393D-11  .000000000000D+00
     .910000000000D+02  .690312500000D+02  .480377152494D-08  .508196765418D+00
     .377185642719D-05  .103955751983D-01  .101476907730D-04  .515360276604D+04
     .374400000000D+06 -.167638063431D-07  .679269557115D+00  .111758708954D-06
     .942613377276D+00  .174218750000D+03 -.242323620462D+01 -.823069998455D-08
    -.597167731576D-09  .100000000000D+01  .153300000000D+04  .000000000000D+00
     .240000000000D+01  .000000000000D+00 -.107102096081D-07  .910000000000D+02
     .367206000000D+06  .400000000000D+01
19 09  5 28  8  0  0.0  .243480317295D-04 -.113686837722D-11  .000000000000D+00
     .330000000000D+02  .271875000000D+01  .495806366611D-08 -.140137378276D+01
    -.707805156708D-07  .561752589419D-02  .856071710587D-05  .515360176659D+04
     .374400000000D+06  .484287738800D-07 -.137110392451D+01 -.122934579849D-06
     .957002731668D+00  .214031250000D+03 -.360122937480D+00 -.809390857235D-08
     .579309844866D-09  .100000000000D+01  .153300000000D+04  .000000000000D+00
     .240000000000D+01  .000000000000D+00 -.144354999065D-07  .330000000000D+02
     .367206000000D+06  .400000000000D+01
20 09  5 28  8  0  0.0  .814525410533D-04 -.102318153949D-11  .000000000000D+00
     .480000000000D+02  .439375000000D+02  .475519807309D-08  .648458923877D+00
     .232830643654D-05  .397836288903D-02  .107251107693D-04  .515360651970D+04
     .374400000000D+06 -.100582838058D-06  .625443135097D+00 -.465661287308D-07
     .942287483016D+00  .163437500000D+03  .136477884312D+01 -.811783814054D-08
    -.579309844866D-09  .100000000000D+01  .153300000000D+04  .000000000000D+00
     .240000000000D+01  .000000000000D+00 -.651925802231D-08  .480000000000D+02
     .367206000000D+06  .400000000000D+01
22 09  5 28  8  0  0.0  .198727473617D-03 -.682121026330D-12  .000000000000D+00
     .230000000000D+02  .703750000000D+02  .481734351884D-08 -.527231001745D+00
     .358186662197D-05  .498772645369D-02  .101812183857D-04  .515366423225D+04
     .374400000000D+06 -.596046447754D-07  .684954866388D+00 -.298023223877D-07
     .940273954756D+00  .169218750000D+03 -.188506180761D+01 -.821319925557D-08
    -.572166690182D-09  .100000000000D+01  .153300000000D+04  .000000000000D+00
     .240000000000D+01  .000000000000D+00 -.176951289177D-07  .230000000000D+02
     .367206000000D+06  .400000000000D+01
23 09  5 28  8  0  0.0  .390143599361D-03  .113686837722D-12  .000000000000D+00
     .290000000000D+02  .107250000000D+03  .418946022212D-08 -.194361422013D+01
     .552274286747D-05  .612100190483D-02  .550970435143D-05  .515360925865D+04
     .374400000000D+06 -.726431608200D-07  .170284013333D+01 -.465661287308D-07
     .970162147925D+00  .279718750000D+03  .288509202188D+01 -.807605068564D-08
     .230723896291D-09  .100000000000D+01  .153300000000D+04  .000000000000D+00
     .240000000000D+01  .000000000000D+00 -.200234353542D-07  .290000000000D+02
     .367206000000D+06  .400000000000D+01
25 09  5 28  8  0  0.0  .434649176896D-03  .189857018995D-10  .000000000000D+00
     .105000000000D+03 -.358437500000D+02  .449840166220D-08  .925525919184D+00
    -.200793147087D-05  .114183395635D-01  .186264514923D-05  .515364885330D+04
     .374400000000D+06 -.186264514923D-07  .265057408522D+01 -.189989805222D-06
     .969803125884D+00  .347343750000D+03 -.120706890253D+01 -.848749639544D-08
     .146434671020D-10  .100000000000D+01  .153300000000D+04  .000000000000D+00
     .240000000000D+01  .000000000000D+00 -.745058059692D-08  .105000000000D+03
     .367206000000D+06  .400000000000D+01
26 09  5 28  8  0  0.0  .622589141130D-04  .102318153949D-11  .000000000000D+00
     .500000000000D+02  .108906250000D+03  .359300680601D-08  .302803497479D+01
     .546872615814D-05  .204075161600D-01  .403448939323D-05  .515489115143D+04
     .374400000000D+06  .143423676491D-06  .175251851989D+01 -.137835741043D-06
     .992497523266D+00  .316375000000D+03  .100994739444D+01 -.754424281942D-08
     .185364864048D-09  .100000000000D+01  .153300000000D+04  .000000000000D+00
     .240000000000D+01  .000000000000D+00 -.651925802231D-08  .500000000000D+02
     .367206000000D+06  .400000000000D+01
27 09  5 28  8  0  0.0  .526588410139D-04  .306954461848D-11  .000000000000D+00
     .210000000000D+02 -.572500000000D+02  .436018161907D-08 -.108650304007D+01
    -.245496630669D-05  .212967933621D-01  .292621552944D-05  .515378702927D+04
     .374400000000D+06 -.210478901863D-06  .268694975831D+01  .344589352608D-06
     .974541197164D+00  .335250000000D+03 -.159219845403D+01 -.850642575535D-08
     .689314426998D-10  .100000000000D+01  .153300000000D+04  .000000000000D+00
     .240000000000D+01  .000000000000D+00 -.419095158577D-08  .210000000000D+02
     .367206000000D+06  .400000000000D+01
28 09  5 28  8  0  0.0 -.250786542892D-04 -.227373675443D-12  .000000000000D+00
     .800000000000D+01 -.863437500000D+02  .424303388225D-08 -.274114387747D+00
    -.452436506748D-05  .148776436690D-01  .999309122562D-05  .515365275574D+04
     .374400000000D+06 -.987201929092D-07 -.246140719565D+01  .208616256714D-06
     .966774491935D+00  .196406250000D+03 -.202457491398D+01 -.809319425688D-08
     .278225874939D-09  .100000000000D+01  .153300000000D+04  .000000000000D+00
     .240000000000D+01  .000000000000D+00 -.107102096081D-07  .800000000000D+01
     .367206000000D+06  .400000000000D+01
30 09  5 28  8  0  0.0  .149489846081D-03  .272848410532D-11  .000000000000D+00
     .800000000000D+01 -.107562500000D+03  .454804658725D-08  .210514278799D+00
    -.585429370403D-05  .114200483076D-01  .102333724499D-04  .515360027313D+04
     .374400000000D+06 -.154599547386D-06 -.253429337167D+01  .186264514923D-07
     .952222265022D+00  .179375000000D+03  .141602823985D+01 -.825034365993D-08
     .142863093678D-09  .100000000000D+01  .153300000000D+04  .000000000000D+00
     .240000000000D+01  .000000000000D+00 -.838190317154D-08  .800000000000D+01
     .367206000000D+06  .400000000000D+01
31 09  5 28  8  0  0.0 -.611911527812D-04 -.795807864051D-12  .000000000000D+00
     .970000000000D+02 -.651250000000D+02  .428803575676D-08  .258602310147D+01
    -.325962901115D-05  .705458549783D-02  .163912773132D-05  .515371856880D+04
     .374400000000D+06 -.111758708954D-07  .274293514166D+01  .409781932831D-07
     .972978625105D+00  .354406250000D+03 -.113932814879D+01 -.816891169653D-08
    -.757174396496D-10  .100000000000D+01  .153300000000D+04  .000000000000D+00
     .240000000000D+01  .000000000000D+00 -.130385160446D-07  .970000000000D+02
     .367206000000D+06  .400000000000D+01
 7 09  5 28  7 59 44.0  .181058421731D-04 -.682121026330D-12  .000000000000D+00
     .260000000000D+02 -.535937500000D+02  .444447084434D-08  .276299611095D+01
    -.274740159512D-05  .258121045772D-02  .177323818207D-05  .515366924095D+04
     .374384000000D+06  .186264514923D-07  .274505284286D+01  .391155481339D-07
     .967605704433D+00  .346562500000D+03  .287610691801D+01 -.828641659108D-08
    -.239295681911D-10  .100000000000D+01  .153300000000D+04  .000000000000D+00
     .240000000000D+01  .000000000000D+00 -.107102096081D-07  .260000000000D+02
     .368016000000D+06  .400000000000D+01
